OBJECT_NAME,OBJECT_ID,EPOCH,MEAN_MOTION,ECCENTRICITY,INCLINATION,RA_OF_ASC_NODE,ARG_OF_PERICENTER,MEAN_ANOMALY,EPHEMERIS_TYPE,CLASSIFICATION_TYPE,NORAD_CAT_ID,ELEMENT_SET_NO,REV_AT_EPOCH,BSTAR,MEAN_MOTION_DOT,MEAN_MOTION_DDOT
FENGYUN 3D,2017-072A,2026-06-15T12:38:04.346016,14.19739073,.0002593,99.0118,140.9187,64.9063,295.2381,0,U,43010,999,44475,-.44675E-5,-.56E-6,0
NOAA 20 (JPSS-1),2017-073A,2026-06-15T10:48:54.762048,14.19511360,.0000291,98.7772,105.9287,83.1943,276.9266,0,U,43013,999,44422,.34483E-4,.28E-6,0
GOES 17,2018-022A,2026-06-15T10:55:30.284832,1.00269922,.0000399,0.9331,85.7405,34.0768,218.2957,0,U,43226,999,3040,0,-.18E-5,0
SENTINEL-3B,2018-039A,2026-06-15T10:28:30.006624,14.26734189,.0000742,98.6250,233.9938,85.5987,274.5279,0,U,43437,999,42387,.45013E-4,.65E-6,0
FENGYUN 2H,2018-050A,2026-06-15T11:43:41.168352,1.00269740,.0001958,3.0258,79.0896,137.7506,302.2703,0,U,43491,999,2942,0,-.129E-5,0
METOP-C,2018-087A,2026-06-15T10:46:45.414336,14.21511663,.0001707,98.6645,226.0845,131.4898,228.6427,0,U,43689,999,39458,.60433E-4,.89E-6,0
GEO-KOMPSAT-2A,2018-100A,2026-06-15T11:57:37.854720,1.00271281,.0001782,0.0516,122.4005,323.9191,125.1382,0,U,43823,999,2761,0,-.341E-5,0
METEOR-M2 2,2019-038A,2026-06-15T13:24:37.226880,14.24365927,.0002121,98.9135,153.8199,50.3711,309.7655,0,U,44387,999,36106,.56154E-4,.84E-6,0
ARKTIKA-M 1,2021-016A,2026-06-09T12:22:37.726752,2.00625436,.7285674,63.2417,58.7595,269.8905,14.6803,0,U,47719,999,3863,0,-.149E-5,0
FENGYUN 3E,2021-062A,2026-06-15T12:15:06.371424,14.19903778,.0002832,98.7485,169.9371,87.8947,272.2554,0,U,49008,999,25634,.69666E-5,-.29E-6,0
GOES 18,2022-021A,2026-06-15T10:41:54.089088,1.00269603,.0000304,0.0095,98.2877,69.5189,119.3964,0,U,51850,999,657,0,.1E-5,0
NOAA 21 (JPSS-2),2022-150A,2026-06-15T11:36:22.908672,14.19565162,.0001555,98.7060,105.3014,157.9064,202.2179,0,U,54234,999,18630,.36789E-4,.34E-6,0
METEOSAT-12 (MTG-I1),2022-170C,2026-06-15T07:55:34.273920,1.00272178,.0003127,0.7364,22.6630,71.8494,287.5788,0,U,54743,999,1295,0,-.5E-7,0
TIANMU-1 03,2023-039A,2026-06-15T11:57:10.395072,15.47243148,.0004266,97.5224,340.4011,103.1664,257.0061,0,U,55973,999,18057,.24799E-3,.12537E-3,0
TIANMU-1 04,2023-039B,2026-06-15T11:42:57.432672,15.47840402,.0004865,97.5161,339.5444,100.3133,259.8666,0,U,55974,999,18058,.24836E-3,.12821E-3,0
TIANMU-1 05,2023-039C,2026-06-15T11:29:21.446880,15.47170406,.0003916,97.5207,339.9962,118.9000,241.2643,0,U,55975,999,18055,.24796E-3,.12503E-3,0
TIANMU-1 06,2023-039D,2026-06-15T11:47:40.264800,15.47744812,.0004337,97.5214,340.6437,114.9449,245.2252,0,U,55976,999,18058,.24392E-3,.12547E-3,0
FENGYUN 3G,2023-055A,2026-06-15T11:56:23.879040,15.52562228,.0006914,49.9935,354.7278,289.1211,70.9007,0,U,56232,999,17974,.3084E-3,.1891E-3,0
METEOR-M2 3,2023-091A,2026-06-15T11:34:42.695904,14.24046655,.0004265,98.6090,221.4956,159.8767,200.2581,0,U,57166,999,15427,.18419E-4,-.1E-7,0
TIANMU-1 07,2023-101A,2026-06-15T11:09:25.219008,15.29790080,.0004008,97.2592,217.1727,125.0113,235.1504,0,U,57399,999,16138,.18184E-3,.5173E-4,0
TIANMU-1 08,2023-101B,2026-06-15T11:55:34.987872,15.29795607,.0005538,97.2581,216.9749,119.0620,241.1176,0,U,57400,999,16138,.19322E-3,.5504E-4,0
TIANMU-1 09,2023-101C,2026-06-15T11:31:44.933088,15.29825705,.0004483,97.2539,216.3753,130.6672,229.4959,0,U,57401,999,16138,.19337E-3,.5512E-4,0
TIANMU-1 10,2023-101D,2026-06-15T12:19:17.821344,15.29798007,.0006073,97.2619,217.4563,130.4314,229.7458,0,U,57402,999,16138,.19609E-3,.5587E-4,0
FENGYUN 3F,2023-111A,2026-06-15T11:52:00.244992,14.19938852,.0001582,98.6835,236.5347,94.7666,265.3691,0,U,57490,999,14862,.43864E-4,.5E-6,0
ARKTIKA-M 2,2023-198A,2026-06-09T18:48:45.592992,2.00606537,.69004015,63.2205,155.1874,267.4353,18.7899,0,U,58584,999,1817,0,.212E-5,0
TIANMU-1 11,2023-205A,2026-06-15T13:06:40.506624,15.26981416,.0009178,97.3441,188.1288,22.7903,337.3742,0,U,58645,999,13727,.18788E-3,.4908E-4,0
TIANMU-1 12,2023-205B,2026-06-15T12:23:56.659200,15.26945476,.0006919,97.3430,187.8557,9.4963,350.6406,0,U,58646,999,13725,.19312E-3,.5039E-4,0
TIANMU-1 13,2023-205C,2026-06-15T13:10:03.301248,15.26799281,.0006086,97.3458,188.1596,348.1973,11.9123,0,U,58647,999,13725,.19516E-3,.5069E-4,0
TIANMU-1 14,2023-205D,2026-06-15T12:48:49.277088,15.26843354,.0007057,97.3395,187.3281,352.0428,8.0697,0,U,58648,999,13725,.18651E-3,.4849E-4,0
TIANMU-1 19,2023-208A,2026-06-15T12:33:00.916128,15.31552421,.000394,97.4508,282.8137,335.7979,24.3077,0,U,58660,999,13707,.22436E-3,.6758E-4,0
TIANMU-1 20,2023-208B,2026-06-15T13:29:18.096000,15.32743694,.0006144,97.4451,283.4866,340.6412,19.4595,0,U,58661,999,13717,.20832E-3,.651E-4,0
