FENGYUN 3D              
1 43010U 17072A   26166.52643919 -.00000056  00000+0 -44675-5 0  9998
2 43010  99.0118 140.9187 0002593  64.9063 295.2381 14.19739073444753
NOAA 20 (JPSS-1)        
1 43013U 17073A   26166.45063382  .00000028  00000+0  34483-4 0  9996
2 43013  98.7772 105.9287 0000291  83.1943 276.9266 14.19511360444220
GOES 17                 
1 43226U 18022A   26166.45521163 -.00000180  00000+0  00000+0 0  9996
2 43226   0.9331  85.7405 0000399  34.0768 218.2957  1.00269922 30405
SENTINEL-3B             
1 43437U 18039A   26166.43645841  .00000065  00000+0  45013-4 0  9995
2 43437  98.6250 233.9938 0000742  85.5987 274.5279 14.26734189423870
FENGYUN 2H              
1 43491U 18050A   26166.48867093 -.00000129  00000+0  00000+0 0  9992
2 43491   3.0258  79.0896 0001958 137.7506 302.2703  1.00269740 29425
METOP-C                 
1 43689U 18087A   26166.44913674  .00000089  00000+0  60433-4 0  9999
2 43689  98.6645 226.0845 0001707 131.4898 228.6427 14.21511663394586
GEO-KOMPSAT-2A          
1 43823U 18100A   26166.49835480 -.00000341  00000+0  00000+0 0  9999
2 43823   0.0516 122.4005 0001782 323.9191 125.1382  1.00271281 27614
METEOR-M2 2             
1 44387U 19038A   26166.55876420  .00000084  00000+0  56154-4 0  9991
2 44387  98.9135 153.8199 0002121  50.3711 309.7655 14.24365927361066
ARKTIKA-M 1             
1 47719U 21016A   26160.51571443 -.00000149  00000+0  00000+0 0  9996
2 47719  63.2417  58.7595 7285674 269.8905  14.6803  2.00625436 38630
FENGYUN 3E              
1 49008U 21062A   26166.51049041 -.00000029  00000+0  69666-5 0  9996
2 49008  98.7485 169.9371 0002832  87.8947 272.2554 14.19903778256344
GOES 18                 
1 51850U 22021A   26166.44576492  .00000100  00000+0  00000+0 0  9997
2 51850   0.0095  98.2877 0000304  69.5189 119.3964  1.00269603  6579
NOAA 21 (JPSS-2)        
1 54234U 22150A   26166.48359848  .00000034  00000+0  36789-4 0  9991
2 54234  98.7060 105.3014 0001555 157.9064 202.2179 14.19565162186303
METEOSAT-12 (MTG-I1)    
1 54743U 22170C   26166.33025780 -.00000005  00000+0  00000+0 0  9998
2 54743   0.7364  22.6630 0003127  71.8494 287.5788  1.00272178 12950
TIANMU-1 03             
1 55973U 23039A   26166.49803698  .00012537  00000+0  24799-3 0  9995
2 55973  97.5224 340.4011 0004266 103.1664 257.0061 15.47243148180573
TIANMU-1 04             
1 55974U 23039B   26166.48816473  .00012821  00000+0  24836-3 0  9998
2 55974  97.5161 339.5444 0004865 100.3133 259.8666 15.47840402180586
TIANMU-1 05             
1 55975U 23039C   26166.47872045  .00012503  00000+0  24796-3 0  9997
2 55975  97.5207 339.9962 0003916 118.9000 241.2643 15.47170406180558
TIANMU-1 06             
1 55976U 23039D   26166.49143825  .00012547  00000+0  24392-3 0  9997
2 55976  97.5214 340.6437 0004337 114.9449 245.2252 15.47744812180585
FENGYUN 3G              
1 56232U 23055A   26166.49749860  .00018910  00000+0  30840-3 0  9997
2 56232  49.9935 354.7278 0006914 289.1211  70.9007 15.52562228179748
METEOR-M2 3             
1 57166U 23091A   26166.48243861 -.00000001  00000+0  18419-4 0  9995
2 57166  98.6090 221.4956 0004265 159.8767 200.2581 14.24046655154272
TIANMU-1 07             
1 57399U 23101A   26166.46487522  .00005173  00000+0  18184-3 0  9999
2 57399  97.2592 217.1727 0004008 125.0113 235.1504 15.29790080161381
TIANMU-1 08             
1 57400U 23101B   26166.49693273  .00005504  00000+0  19322-3 0  9990
2 57400  97.2581 216.9749 0005538 119.0620 241.1176 15.29795607161380
TIANMU-1 09             
1 57401U 23101C   26166.48038117  .00005512  00000+0  19337-3 0  9995
2 57401  97.2539 216.3753 0004483 130.6672 229.4959 15.29825705161388
TIANMU-1 10             
1 57402U 23101D   26166.51340071  .00005587  00000+0  19609-3 0  9999
2 57402  97.2619 217.4563 0006073 130.4314 229.7458 15.29798007161388
FENGYUN 3F              
1 57490U 23111A   26166.49444728  .00000050  00000+0  43864-4 0  9999
2 57490  98.6835 236.5347 0001582  94.7666 265.3691 14.19938852148623
ARKTIKA-M 2             
1 58584U 23198A   26160.78386103  .00000212  00000+0  00000+0 0  9997
2 58584  63.2205 155.1874 6900401 267.4353  18.7899  2.00606537 18179
TIANMU-1 11             
1 58645U 23205A   26166.54630216  .00004908  00000+0  18788-3 0  9993
2 58645  97.3441 188.1288 0009178  22.7903 337.3742 15.26981416137274
TIANMU-1 12             
1 58646U 23205B   26166.51662800  .00005039  00000+0  19312-3 0  9995
2 58646  97.3430 187.8557 0006919   9.4963 350.6406 15.26945476137255
TIANMU-1 13             
1 58647U 23205C   26166.54864932  .00005069  00000+0  19516-3 0  9998
2 58647  97.3458 188.1596 0006086 348.1973  11.9123 15.26799281137256
TIANMU-1 14             
1 58648U 23205D   26166.53390367  .00004849  00000+0  18651-3 0  9998
2 58648  97.3395 187.3281 0007057 352.0428   8.0697 15.26843354137251
TIANMU-1 19             
1 58660U 23208A   26166.52292727  .00006758  00000+0  22436-3 0  9992
2 58660  97.4508 282.8137 0003940 335.7979  24.3077 15.31552421137070
TIANMU-1 20             
1 58661U 23208B   26166.56201500  .00006510  00000+0  20832-3 0  9990
2 58661  97.4451 283.4866 0006144 340.6412  19.4595 15.32743694137176
